{
    "links": {
        "self": "http://www.neowsapp.com/rest/v1/neo/3746218?api_key=iIulBulltgU6a56xZRHN4H3l9WmuAYTsLGpBGhQ2"
    },
    "id": "3746218",
    "neo_reference_id": "3746218",
    "name": "(2016 EH85)",
    "designation": "2016 EH85",
    "nasa_jpl_url": "http://ssd.jpl.nasa.gov/sbdb.cgi?sstr=3746218",
    "absolute_magnitude_h": 27.2,
    "estimated_diameter": {
        "kilometers": {
            "estimated_diameter_min": 0.0096506147,
            "estimated_diameter_max": 0.0215794305
        },
        "meters": {
            "estimated_diameter_min": 9.6506146958,
            "estimated_diameter_max": 21.5794304844
        },
        "miles": {
            "estimated_diameter_min": 0.0059966121,
            "estimated_diameter_max": 0.0134088323
        },
        "feet": {
            "estimated_diameter_min": 31.6621227185,
            "estimated_diameter_max": 70.7986587106
        }
    },
    "is_potentially_hazardous_asteroid": false,
    "close_approach_data": [
        {
            "close_approach_date": "1913-05-15",
            "close_approach_date_full": "1913-May-15 04:17",
            "epoch_date_close_approach": -1787168580000,
            "relative_velocity": {
                "kilometers_per_second": "17.976163957",
                "kilometers_per_hour": "64714.1902451968",
                "miles_per_hour": "40210.8811554113"
            },
            "miss_distance": {
                "astronomical": "0.4133270732",
                "lunar": "160.7842314748",
                "kilometers": "61832849.764054084",
                "miles": "38421151.2309269992"
            },
            "orbiting_body": "Earth"
        },
        {
            "close_approach_date": "1966-02-03",
            "close_approach_date_full": "1966-Feb-03 04:27",
            "epoch_date_close_approach": -123363180000,
            "relative_velocity": {
                "kilometers_per_second": "19.1850498555",
                "kilometers_per_hour": "69066.1794796924",
                "miles_per_hour": "42915.0380217011"
            },
            "miss_distance": {
                "astronomical": "0.44173469",
                "lunar": "171.83479441",
                "kilometers": "66082568.7291103",
                "miles": "41061804.14711014"
            },
            "orbiting_body": "Earth"
        },
        {
            "close_approach_date": "2016-03-14",
            "close_approach_date_full": "2016-Mar-14 13:29",
            "epoch_date_close_approach": 1457962140000,
            "relative_velocity": {
                "kilometers_per_second": "7.0876216555",
                "kilometers_per_hour": "25515.4379596892",
                "miles_per_hour": "15854.3008811191"
            },
            "miss_distance": {
                "astronomical": "0.0414098167",
                "lunar": "16.1084186963",
                "kilometers": "6194820.375410429",
                "miles": "3849282.8876607602"
            },
            "orbiting_body": "Earth"
        }
    ],
    "orbital_data": {
        "orbit_id": "6",
        "orbit_determination_date": "2017-04-06 08:27:36",
        "first_observation_date": "2016-03-10",
        "last_observation_date": "2016-03-15",
        "data_arc_in_days": 5,
        "observations_used": 29,
        "orbit_uncertainty": "7",
        "minimum_orbit_intersection": ".037123",
        "jupiter_tisserand_invariant": "3.712",
        "epoch_osculation": "2459000.5",
        "eccentricity": ".4785394815019884",
        "semi_major_axis": "1.974025150171258",
        "inclination": "6.039182689266346",
        "ascending_node_longitude": "351.5051945745275",
        "orbital_period": "1013.041995048345",
        "perihelion_distance": "1.02937617833642",
        "perihelion_argument": "191.8684475471927",
        "aphelion_distance": "2.918674122006097",
        "perihelion_time": "2459495.937035170800",
        "mean_anomaly": "183.9388559079663",
        "mean_motion": ".3553653271627893",
        "equinox": "J2000",
        "orbit_class": {
            "orbit_class_type": "AMO",
            "orbit_class_description": "Near-Earth asteroid orbits similar to that of 1221 Amor",
            "orbit_class_range": "1.017 AU < q (perihelion) < 1.3 AU"
        }
    },
    "is_sentry_object": false
}